{"fetched_at":"2026-03-30T13:17:50Z","count":15418,"tles":[{"name":"STARLINK-35354","line1":"1 66477U 25262X   26087.61933217  .00036827  00000+0  13403-2 0  9990","line2":"2 66477  42.9987 189.0679 0001447 284.7195  75.3496 15.27599653 21800","category":"Starlink"}]}